CSS (TIANHE)            
1 48274U 21035A   23258.46697371  .00029249  00000+0  32414-3 0  9991
2 48274  41.4746 326.7477 0008583  21.4798 338.6400 15.62277228135942
